IRIDIUM 119             
1 42959U 17061E   24249.51202138  .00000657  00000+0  22759-3 0  9992
2 42959  86.3942 296.7446 0001897  87.4843 272.6570 14.34217746361693
IRIDIUM 107             
1 42960U 17061F   24249.53103694  .00000884  00000+0  30868-3 0  9995
2 42960  86.3944 296.7541 0001940  91.1759 268.9659 14.34225593361718
IRIDIUM 132             
1 42961U 17061G   24247.51410275  .00000208  00000+0  67236-4 0  9998
2 42961  86.3948 297.5816 0001874  97.1238 263.0171 14.34217081361416
IRIDIUM 136             
1 42962U 17061H   24249.56910200  .00000786  00000+0  27362-3 0  9995
2 42962  86.3945 296.7263 0002129  88.0979 272.0461 14.34217042361729
IRIDIUM 139             
1 42963U 17061J   24249.50567746  .00000160  00000+0  50067-4 0  9998
2 42963  86.3946 296.8038 0001790  91.9168 268.2233 14.34217626361720
IRIDIUM 125             
1 42964U 17061K   24249.49299155  .00000557  00000+0  19172-3 0  9994
2 42964  86.3948 296.8587 0001912  77.0811 283.0599 14.34216779361737
IRIDIUM 135             
1 43070U 17083A   24249.46712039 -.00000051  00000+0 -25123-4 0  9990
2 43070  86.3948 233.4987 0002355  94.7738 265.3727 14.34216975351028
IRIDIUM 138             
1 43071U 17083B   24249.49249012 -.00000033  00000+0 -18854-4 0  9993
2 43071  86.3936 233.1952 0002315  78.4287 281.7169 14.34217182351011
